[Satellite]
VERSION=1.1
NAME=RS32S (SXC3-212 MONITO*)
NICKNAME=RS32S (SXC3-212 MONITO*)
TLE1=1 53374U 22096E   22342.52163284  .00013026  00000+0  48753-3 0  9996
TLE2=2 53374  97.4275 243.2361 0003509  83.4983  42.7333 15.27428453 18485
STATUS=0
